STARLINK-30227          
1 57505U 23113L   26068.22529593  .00032605  00000+0  15711-2 0  9993
2 57505  43.0053   4.8681 0002789 225.8359 134.2260 15.18160462143769
TRANSPORTER-15 OBJECT AD
1 66693U 25276AD  26068.70598116  .00014178  00000+0  65660-3 0  9997
2 66693  97.4241 144.0136 0003881  30.5762 329.5699 15.20206781 15327
